ONEWEB-0656             
1 55817U 23029X   24175.72672272 -.00000203  00000+0 -53240-3 0  9999
2 55817  87.9213  58.3498 0001192  88.4879 271.6391 13.20772104 66336
ONEWEB-0657             
1 55818U 23029Y   24175.32587777  .00000104  00000+0  22743-3 0  9993
2 55818  87.9158  89.0262 0001215  60.6823 299.4431 13.19726026 63433
ONEWEB-0658             
1 55819U 23029Z   24175.32114758  .00000123  00000+0  27384-3 0  9996
2 55819  87.9156  88.9626 0002473  66.7251 293.4141 13.19727067 63442
ONEWEB-0660             
1 55820U 23029AA  24175.77934590  .00000257  00000+0  65798-3 0  9990
2 55820  87.8966  73.6019 0002463  80.5191 279.6217 13.14504764 65078
ONEWEB-0661             
1 55821U 23029AB  24175.73812593 -.00000133  00000+0 -39429-3 0  9992
2 55821  87.8967  73.6771 0002382  84.8869 275.2533 13.14503134 65033
ONEWEB-0662             
1 55822U 23029AC  24175.77306441 -.00004616  00000+0 -12500-1 0  9996
2 55822  87.8971  73.6771 0002151  81.8284 278.3090 13.14460718 65101
ONEWEB-0663             
1 55823U 23029AD  24175.71965887  .00000049  00000+0  88000-4 0  9991
2 55823  87.9211  58.4121 0002320  77.9177 282.2216 13.20788871 66324
ONEWEB-0664             
1 55824U 23029AE  24175.71411777  .00000083  00000+0  17314-3 0  9993
2 55824  87.9213  58.4261 0002128  94.4268 265.7108 13.20772089 66334
